COSMOS 1408 DEB         
1 50032U 82092RU  26163.24862814  .00004462  00000+0  85332-4 0  9994
2 50032  82.5634 232.1610 0013493 273.0190  86.9516 15.47663216254093
COSMOS 1408 DEB         
1 50058U 82092SW  26163.24934663  .00069576  00000+0  35607-3 0  9990
2 50058  82.6093 237.1076 0011091 136.3093 223.9055 15.80980083256552
COSMOS 1408 DEB         
1 50621U 82092ALR 26163.22374166  .00042555  00000+0  36455-3 0  9990
2 50621  82.5662 243.4930 0021486 193.3806 166.6889 15.68918537250847
